EUTELSAT 21B            
1 38992U 12062B   25238.57753223  .00000125  00000+0  00000+0 0  9992
2 38992   0.0695 358.9813 0002541 157.7418  47.8453  1.00270308 46872
EUTELSAT 70B            
1 39020U 12069A   25238.61460498 -.00000048  00000+0  00000+0 0  9991
2 39020   0.0652   0.0855 0003584 157.6923 109.0734  1.00271629 46552
EUTELSAT 117 WEST A     
1 39122U 13012A   25238.61850297  .00000000  00000+0  00000+0 0  9990
2 39122   0.0162 247.7581 0002988 277.5679 275.6507  1.00271700 45472
EUTELSAT 7B             
1 39163U 13022A   25238.58308718  .00000044  00000+0  00000+0 0  9996
2 39163   0.0728 331.5396 0001719  72.6969 147.7552  1.00274582 45007
EXPRESS-AT1             
1 39612U 14010A   25238.61174497  .00000072  00000+0  00000+0 0  9993
2 39612   0.0458 288.8838 0001682  83.3986 239.0742  1.00284206 41868
EXPRESS-AT2             
1 39613U 14010B   25238.61155650 -.00000285  00000+0  00000+0 0  9991
2 39613   0.0398 288.8745 0000233 117.9445 288.2890  1.00272676 41547
EUTELSAT 3B             
1 39773U 14030A   25238.38716149  .00000015  00000+0  00000+0 0  9990
2 39773   0.0652 357.6147 0004178 158.1348 321.5861  1.00271861 41116
EUTELSAT 115 WEST B     
1 40425U 15010B   25238.55391917 -.00000030  00000+0  00000+0 0  9994
2 40425   0.0082 268.3639 0000070 307.4583 203.7221  1.00272741 38430
